[{"name":"CARTOSAT-2D","line1":"1 41948U 17008A   26177.70878608  .00006650  00000+0  31834-3 0  9997","line2":"2 41948  97.4105 236.8371 0004636 195.6503 164.4590 15.19278606519023"},{"name":"CARTOSAT-2E","line1":"1 42767U 17036C   26177.59473678  .00004006  00000+0  19339-3 0  9992","line2":"2 42767  97.4276 237.2426 0002209 275.4280  84.6703 15.19233949499578"},{"name":"IRIDIUM 113","line1":"1 42803U 17039A   26177.44980471  .00000014  00000+0 -19104-5 0  9992","line2":"2 42803  86.3976 318.3064 0002152  89.9404 270.2039 14.34217706472514"},{"name":"NORSAT 2","line1":"1 42828U 17042D   26177.42919122  .00011530  00000+0  50564-3 0  9993","line2":"2 42828  97.4040 350.7241 0009749  26.8868 333.2872 15.22094173489147"},{"name":"TECHNOSAT","line1":"1 42829U 17042E   26177.42456088  .00003157  00000+0  22568-3 0  9990","line2":"2 42829  97.4293 334.7318 0019289  65.5257 294.7980 15.05014135488092"},{"name":"FLYING LAPTOP","line1":"1 42831U 17042G   26177.65074079  .00002661  00000+0  21104-3 0  9998","line2":"2 42831  97.4723 332.8218 0019956  91.4280 268.9231 15.01203041487875"},{"name":"WNISAT 1R","line1":"1 42835U 17042L   26177.42005727  .00002380  00000+0  18681-3 0  9995","line2":"2 42835  97.4833 333.2125 0011941 119.4112 240.8307 15.01798484487899"},{"name":"LEMUR-2-GREENBERG","line1":"1 42837U 17042N   26177.49592645  .00016326  00000+0  53655-3 0  9999","line2":"2 42837  97.3818 358.0794 0007652 338.7473  21.3450 15.31600683489811"},{"name":"LEMUR-2-FURIAUS","line1":"1 42840U 17042R   26177.49621440  .00017720  00000+0  60140-3 0  9995","line2":"2 42840  97.3768 356.0139 0007522  39.2212 320.9573 15.30543463489635"},{"name":"CORVUS BC2","line1":"1 42846U 17042X   26177.42845160  .00003033  00000+0  20975-3 0  9995","line2":"2 42846  97.4071 338.4196 0014712  82.0496 278.2401 15.06351589488458"},{"name":"CORVUS BC1","line1":"1 42847U 17042Y   26177.42203821  .00002904  00000+0  20021-3 0  9996","line2":"2 42847  97.4096 339.2335 0013148  61.1168 299.1377 15.06514290488483"},{"name":"VRSS-2","line1":"1 42954U 17060A   26177.57714274  .00000775  00000+0  10563-3 0  9994","line2":"2 42954  97.6513 214.8810 0018642  70.5836 289.7390 14.81207973469842"},{"name":"MOHAMMED VI-A","line1":"1 43005U 17070A   26177.76260021  .00000984  00000+0  14658-3 0  9991","line2":"2 43005  97.9558 249.9619 0001225  76.2612 283.8734 14.77081255465393"},{"name":"FENGYUN 3D","line1":"1 43010U 17072A   26177.73192537 -.00000195  00000+0 -70407-4 0  9993","line2":"2 43010  99.0125 152.3264 0002339  47.7980 312.3394 14.19740326446344"},{"name":"NOAA 20 (JPSS-1)","line1":"1 43013U 17073A   26177.72844921  .00000042  00000+0  40828-4 0  9990","line2":"2 43013  98.7772 117.1062 0000629 133.0625 227.0604 14.19513365445820"},{"name":"MAKERSAT 0","line1":"1 43016U 17073D   26175.42911744  .00015733  00000+0  42578-3 0  9992","line2":"2 43016  97.4622  58.0052 0104847 246.7219 112.2959 15.32301022467578"},{"name":"RADFXSAT (FOX-1B)","line1":"1 43017U 17073E   26176.60840684  .00008156  00000+0  35687-3 0  9992","line2":"2 43017  97.4699  43.6511 0148629 299.9037  58.7499 15.12826697466667"},{"name":"JILIN-1 04","line1":"1 43022U 17074A   26177.62210444  .00013936  00000+0  32137-3 0  9996","line2":"2 43022  97.4863 287.4871 0004781 149.9596 210.1927 15.42679984475722"},{"name":"JILIN-1 05","line1":"1 43023U 17074B   26177.71053794  .00008345  00000+0  25591-3 0  9994","line2":"2 43023  97.4870 283.9940 0005231 179.3409 180.7841 15.34017720475463"},{"name":"JILIN-1 06","line1":"1 43024U 17074C   26177.74860242  .00006396  00000+0  19805-3 0  9997","line2":"2 43024  97.4797 281.0299 0006544 193.5086 166.5982 15.33801821475308"},{"name":"IRIDIUM 116","line1":"1 43072U 17083C   26177.63374009  .00000136  00000+0  41652-4 0  9991","line2":"2 43072  86.3972 318.0512 0002162 101.7438 258.4001 14.34218111445524"},{"name":"IRIDIUM 130","line1":"1 43073U 17083D   26177.46248868  .00000065  00000+0  16013-4 0  9990","line2":"2 43073  86.3978 318.3990 0001991  96.4606 263.6817 14.34216992445449"},{"name":"LKW-2","line1":"1 43080U 17084A   26177.59972912  .00009441  00000+0  36462-3 0  9993","line2":"2 43080  97.1190 216.9562 0002075 153.0718 207.0629 15.26460710473129"},{"name":"SUPERVIEW-1 03","line1":"1 43099U 18002A   26177.52619777  .00018287  00000+0  44833-3 0  9993","line2":"2 43099  97.3138 262.3500 0047522 146.5140 213.9126 15.39578912469808"},{"name":"CARTOSAT-2F","line1":"1 43111U 18004A   26177.62702248  .00007235  00000+0  34602-3 0  9991","line2":"2 43111  97.4792 237.1698 0001584 168.8538 191.2732 15.19289882468762"},{"name":"LKW-3","line1":"1 43146U 18006A   26177.63450809  .00013521  00000+0  39505-3 0  9997","line2":"2 43146  97.6612 338.5792 0001681 267.9845  92.1205 15.35428718470166"},{"name":"ASNARO-2","line1":"1 43152U 18007A   26177.51936319  .00009631  00000+0  41935-3 0  9994","line2":"2 43152  97.3968 184.3006 0001817  95.7437 264.4007 15.22427286468834"},{"name":"JILIN-1 07","line1":"1 43159U 18008E   26177.61184894  .00008926  00000+0  26588-3 0  9999","line2":"2 43159  97.1768 197.2892 0009029  36.7121 323.4739 15.34872642466447"}]