OBJECT_NAME,OBJECT_ID,EPOCH,MEAN_MOTION,ECCENTRICITY,INCLINATION,RA_OF_ASC_NODE,ARG_OF_PERICENTER,MEAN_ANOMALY,EPHEMERIS_TYPE,CLASSIFICATION_TYPE,NORAD_CAT_ID,ELEMENT_SET_NO,REV_AT_EPOCH,BSTAR,MEAN_MOTION_DOT,MEAN_MOTION_DDOT
CARTOSAT-2D,2017-008A,2026-06-26T17:00:39.117312,15.19278606,.0004636,97.4105,236.8371,195.6503,164.4590,0,U,41948,999,51902,.31834E-3,.665E-4,0
CARTOSAT-2E,2017-036C,2026-06-26T14:16:25.257792,15.19233949,.00022092,97.4276,237.2426,275.4280,84.6703,0,U,42767,999,49957,.1933893E-3,.4006E-4,0
IRIDIUM 113,2017-039A,2026-06-26T10:47:43.126944,14.34217706,.00021521,86.3976,318.3064,89.9404,270.2039,0,U,42803,999,47251,-.191041E-5,.14E-6,0
NORSAT 2,2017-042D,2026-06-26T10:18:02.121408,15.22094173,.00097494,97.4040,350.7241,26.8868,333.2872,0,U,42828,999,48914,.50563648E-3,.1153E-3,0
TECHNOSAT,2017-042E,2026-06-26T10:11:22.060032,15.05014135,.00192896,97.4293,334.7318,65.5257,294.7980,0,U,42829,999,48809,.22567834E-3,.3157E-4,0
FLYING LAPTOP,2017-042G,2026-06-26T15:37:04.004256,15.01203041,.00199561,97.4723,332.8218,91.4280,268.9231,0,U,42831,999,48787,.2110434E-3,.2661E-4,0
WNISAT 1R,2017-042L,2026-06-26T10:04:52.948128,15.01798484,.00119419,97.4833,333.2125,119.4112,240.8307,0,U,42835,999,48789,.18680576E-3,.238E-4,0
LEMUR-2-GREENBERG,2017-042N,2026-06-26T11:54:08.045280,15.31600683,.0007652,97.3818,358.0794,338.7473,21.3450,0,U,42837,999,48981,.53655238E-3,.16326E-3,0
LEMUR-2-FURIAUS,2017-042R,2026-06-26T11:54:32.924160,15.30543463,.00075229,97.3768,356.0139,39.2212,320.9573,0,U,42840,999,48963,.60139562E-3,.1772E-3,0
CORVUS BC2,2017-042X,2026-06-26T10:16:58.218240,15.06351589,.00147128,97.4071,338.4196,82.0496,278.2401,0,U,42846,999,48845,.20975148E-3,.3033E-4,0
CORVUS BC1,2017-042Y,2026-06-26T10:07:44.101344,15.06514290,.00131487,97.4096,339.2335,61.1168,299.1377,0,U,42847,999,48848,.20021413E-3,.2904E-4,0
VRSS-2,2017-060A,2026-06-26T13:51:05.132736,14.81207973,.00186423,97.6513,214.8810,70.5836,289.7390,0,U,42954,999,46984,.10563157E-3,.775E-5,0
MOHAMMED VI-A,2017-070A,2026-06-26T18:18:08.658144,14.77081255,.0001225,97.9558,249.9619,76.2612,283.8734,0,U,43005,999,46539,.14658E-3,.984E-5,0
FENGYUN 3D,2017-072A,2026-06-26T17:33:58.351968,14.19740326,.0002339,99.0125,152.3264,47.7980,312.3394,0,U,43010,999,44634,-.70407E-4,-.195E-5,0
NOAA 20 (JPSS-1),2017-073A,2026-06-26T17:28:58.011744,14.19513365,.0000629,98.7772,117.1062,133.0625,227.0604,0,U,43013,999,44582,.40828E-4,.42E-6,0
MAKERSAT 0,2017-073D,2026-06-24T10:17:55.746816,15.32301022,.01048473,97.4622,58.0052,246.7219,112.2959,0,U,43016,999,46757,.42577588E-3,.15733E-3,0
RADFXSAT (FOX-1B),2017-073E,2026-06-25T14:36:06.350976,15.12826697,.01486298,97.4699,43.6511,299.9037,58.7499,0,U,43017,999,46666,.35687408E-3,.8156E-4,0
JILIN-1 04,2017-074A,2026-06-26T14:55:49.823616,15.42679984,.0004781,97.4863,287.4871,149.9596,210.1927,0,U,43022,999,47572,.32137E-3,.13936E-3,0
JILIN-1 05,2017-074B,2026-06-26T17:03:10.478016,15.34017720,.0005231,97.4870,283.9940,179.3409,180.7841,0,U,43023,999,47546,.25591E-3,.8345E-4,0
JILIN-1 06,2017-074C,2026-06-26T17:57:59.249088,15.33801821,.0006544,97.4797,281.0299,193.5086,166.5982,0,U,43024,999,47530,.19805E-3,.6396E-4,0
IRIDIUM 116,2017-083C,2026-06-26T15:12:35.143776,14.34218111,.0002162,86.3972,318.0512,101.7438,258.4001,0,U,43072,999,44552,.41652159E-4,.136E-5,0
IRIDIUM 130,2017-083D,2026-06-26T11:05:59.021952,14.34216992,.00019916,86.3978,318.3990,96.4606,263.6817,0,U,43073,999,44544,.16013276E-4,.65E-6,0
LKW-2,2017-084A,2026-06-26T14:23:36.595968,15.26460710,.00020758,97.1190,216.9562,153.0718,207.0629,0,U,43080,999,47312,.36462309E-3,.9441E-4,0
SUPERVIEW-1 03,2018-002A,2026-06-26T12:37:43.487328,15.39578912,.00475223,97.3138,262.3500,146.5140,213.9126,0,U,43099,999,46980,.44833036E-3,.18287E-3,0
CARTOSAT-2F,2018-004A,2026-06-26T15:02:54.742272,15.19289882,.00015848,97.4792,237.1698,168.8538,191.2732,0,U,43111,999,46876,.3460171E-3,.7235E-4,0
LKW-3,2018-006A,2026-06-26T15:13:41.498976,15.35428718,.00016816,97.6612,338.5792,267.9845,92.1205,0,U,43146,999,47016,.39505002E-3,.13521E-3,0
ASNARO-2,2018-007A,2026-06-26T12:27:52.979616,15.22427286,.00018178,97.3968,184.3006,95.7437,264.4007,0,U,43152,999,46883,.41935123E-3,.9631E-4,0
JILIN-1 07,2018-008E,2026-06-26T14:41:03.748416,15.34872642,.00090296,97.1768,197.2892,36.7121,323.4739,0,U,43159,999,46644,.26588227E-3,.8926E-4,0
